GALAXY 33 (G-33)        
1 54026U 22128A   26072.39905773  .00000079  00000+0  00000+0 0  9996
2 54026   0.0138 105.0382 0001794 258.0759 178.5705  1.00271687 12780
GALAXY 34 (G-34)        
1 54027U 22128B   26074.18479101  .00000058  00000+0  00000+0 0  9994
2 54027   0.0194 121.2654 0001384 235.7436 113.2853  1.00271715 12977
GALAXY 31 (G-31)        
1 54243U 22153A   26074.11502405  .00000012  00000+0  00000+0 0  9999
2 54243   0.0185 129.0634 0001397 240.5767  83.4825  1.00271947  6186
GALAXY 32 (G-32)        
1 54244U 22153B   26073.05128264 -.00000175  00000+0  00000+0 0  9990
2 54244   0.0167 115.0372 0002962 247.5224  96.5681  1.00271848 12198
GALAXY 35 (G-35)        
1 54741U 22170A   26074.15598279 -.00000163  00000+0  00000+0 0  9997
2 54741   0.0165 130.5549 0001947 225.6003 139.6399  1.00272048 11951
GALAXY 36 (G-36)        
1 54742U 22170B   26073.90745652 -.00000186  00000+0  00000+0 0  9994
2 54742   0.0125 177.3104 0002287 230.5457   2.3380  1.00271974 11829
GALAXY 37 (G-37)        
1 57493U 23112A   26074.25646465  .00000000  00000+0  00000+0 0  9992
2 57493   0.0231 164.7197 0002034 198.8915 134.5806  1.00270697  9605
