[{"OBJECT_NAME":"GALAXY 33 (G-33)","OBJECT_ID":"2022-128A","EPOCH":"2026-03-13T09:34:38.587872","MEAN_MOTION":1.00271687,"ECCENTRICITY":0.00017947,"INCLINATION":0.0138,"RA_OF_ASC_NODE":105.0382,"ARG_OF_PERICENTER":258.0759,"MEAN_ANOMALY":178.5705,"EPHEMERIS_TYPE":0,"CLASSIFICATION_TYPE":"U","NORAD_CAT_ID":54026,"ELEMENT_SET_NO":999,"REV_AT_EPOCH":1278,"BSTAR":0,"MEAN_MOTION_DOT":7.9e-7,"MEAN_MOTION_DDOT":0},{"OBJECT_NAME":"GALAXY 34 (G-34)","OBJECT_ID":"2022-128B","EPOCH":"2026-03-15T04:26:05.943264","MEAN_MOTION":1.00271715,"ECCENTRICITY":0.00013843,"INCLINATION":0.0194,"RA_OF_ASC_NODE":121.2654,"ARG_OF_PERICENTER":235.7436,"MEAN_ANOMALY":113.2853,"EPHEMERIS_TYPE":0,"CLASSIFICATION_TYPE":"U","NORAD_CAT_ID":54027,"ELEMENT_SET_NO":999,"REV_AT_EPOCH":1297,"BSTAR":0,"MEAN_MOTION_DOT":5.8e-7,"MEAN_MOTION_DDOT":0},{"OBJECT_NAME":"GALAXY 31 (G-31)","OBJECT_ID":"2022-153A","EPOCH":"2026-03-15T02:45:38.077920","MEAN_MOTION":1.00271947,"ECCENTRICITY":0.00013977,"INCLINATION":0.0185,"RA_OF_ASC_NODE":129.0634,"ARG_OF_PERICENTER":240.5767,"MEAN_ANOMALY":83.4825,"EPHEMERIS_TYPE":0,"CLASSIFICATION_TYPE":"U","NORAD_CAT_ID":54243,"ELEMENT_SET_NO":999,"REV_AT_EPOCH":618,"BSTAR":0,"MEAN_MOTION_DOT":1.2e-7,"MEAN_MOTION_DDOT":0},{"OBJECT_NAME":"GALAXY 32 (G-32)","OBJECT_ID":"2022-153B","EPOCH":"2026-03-14T01:13:50.820096","MEAN_MOTION":1.00271848,"ECCENTRICITY":0.00029622,"INCLINATION":0.0167,"RA_OF_ASC_NODE":115.0372,"ARG_OF_PERICENTER":247.5224,"MEAN_ANOMALY":96.5681,"EPHEMERIS_TYPE":0,"CLASSIFICATION_TYPE":"U","NORAD_CAT_ID":54244,"ELEMENT_SET_NO":999,"REV_AT_EPOCH":1219,"BSTAR":0,"MEAN_MOTION_DOT":-1.75e-6,"MEAN_MOTION_DDOT":0},{"OBJECT_NAME":"GALAXY 35 (G-35)","OBJECT_ID":"2022-170A","EPOCH":"2026-03-15T03:44:36.913056","MEAN_MOTION":1.00272048,"ECCENTRICITY":0.00019476,"INCLINATION":0.0165,"RA_OF_ASC_NODE":130.5549,"ARG_OF_PERICENTER":225.6003,"MEAN_ANOMALY":139.6399,"EPHEMERIS_TYPE":0,"CLASSIFICATION_TYPE":"U","NORAD_CAT_ID":54741,"ELEMENT_SET_NO":999,"REV_AT_EPOCH":1195,"BSTAR":0,"MEAN_MOTION_DOT":-1.63e-6,"MEAN_MOTION_DDOT":0},{"OBJECT_NAME":"GALAXY 36 (G-36)","OBJECT_ID":"2022-170B","EPOCH":"2026-03-14T21:46:44.243328","MEAN_MOTION":1.00271974,"ECCENTRICITY":0.00022873,"INCLINATION":0.0125,"RA_OF_ASC_NODE":177.3104,"ARG_OF_PERICENTER":230.5457,"MEAN_ANOMALY":2.338,"EPHEMERIS_TYPE":0,"CLASSIFICATION_TYPE":"U","NORAD_CAT_ID":54742,"ELEMENT_SET_NO":999,"REV_AT_EPOCH":1182,"BSTAR":0,"MEAN_MOTION_DOT":-1.86e-6,"MEAN_MOTION_DDOT":0},{"OBJECT_NAME":"GALAXY 37 (G-37)","OBJECT_ID":"2023-112A","EPOCH":"2026-03-15T06:09:18.545760","MEAN_MOTION":1.00270697,"ECCENTRICITY":0.00020347,"INCLINATION":0.0231,"RA_OF_ASC_NODE":164.7197,"ARG_OF_PERICENTER":198.8915,"MEAN_ANOMALY":134.5806,"EPHEMERIS_TYPE":0,"CLASSIFICATION_TYPE":"U","NORAD_CAT_ID":57493,"ELEMENT_SET_NO":999,"REV_AT_EPOCH":960,"BSTAR":0,"MEAN_MOTION_DOT":0,"MEAN_MOTION_DDOT":0}]
